ADRAS-J                 
1 58992U 24034A   24233.85931284  .00007436  00000+0  67602-3 0  9993
2 58992  98.2168 209.8659 0042989 193.7426 166.2626 14.94837955 27522
